0 ARIANE 44LP DEB
1 25279U 89062E   13282.32631909  .00000412  00000-0  92784-3 0  9427
2 25279 007.4761 331.5223 7083379 001.3159 010.3993 02.46563435147743
0 ARIANE 44LP DEB
1 25279U 89062E   13285.55881193  .00000154  00000-0  10016-2 0  9438
2 25279 007.4815 330.0505 7082880 004.1599 359.6475 02.46566098147826
0 ARIANE 44LP DEB
1 25279U 89062E   13285.95285006  .00000128  00000-0  97521-3 0  9442
2 25279 007.4712 329.9478 7082649 004.4473 349.3964 02.46568146147831
0 ARIANE 44LP DEB
1 25279U 89062E   13287.98384161  .00000352  00000-0  12341-2 0  9455
2 25279 007.4682 329.0654 7082214 006.2016 352.1795 02.46572163147888
0 ARIANE 44LP DEB
1 25279U 89062E   13290.48790186  .00000436  00000-0  10135-2 0  9465
2 25279 007.4643 327.9768 7081785 008.3657 054.9174 02.46576355147946
0 ARIANE 44LP DEB
1 25279U 89062E   13292.48092644  .00000468  00000-0  89666-3 0  9473
2 25279 007.4613 327.1084 7081465 010.0886 024.0588 02.46579478147996
0 ARIANE 44LP DEB
1 25279U 89062E   13295.30418413  .00000373  00000-0  88808-3 0  9486
2 25279 007.4573 325.8786 7080891 012.5250 010.2119 02.46583656148068
